{
  "norad_id": 68471,
  "name": "TRANSPORTER-16 OBJECT BH",
  "history": [
    {
      "epoch": "2026-04-13T22:19:14.186784Z",
      "apogee_km": 596.3687505527178,
      "perigee_km": 593.530843688025,
      "latitude_deg": -3.655302014309044e-05,
      "longitude_deg": -113.7432501484222,
      "height_km": 598.1396181513331,
      "semi_major_axis_km": 6973.086797120371,
      "eccentricity": 0.00020349,
      "inclination_deg": 97.7527,
      "raan_deg": 63.1796,
      "arg_perigee_deg": 264.0823,
      "mean_anomaly_deg": 96.0163,
      "mean_motion_rev_day": 14.90957127
    }
  ]
}