TRANSPORTER-16 OBJECT BH
1 68471U 26067BH  26103.93002531  .00001490  00000+0  15645-3 0  9999
2 68471  97.7527  63.1796 0002034 264.0823  96.0163 14.90957127  2159
